[{"OBJECT_NAME":"EAGLET-I","OBJECT_ID":"2018-099AJ","EPOCH":"2026-03-09T16:28:56.807904","MEAN_MOTION":15.12108145,"ECCENTRICITY":0.00104863,"INCLINATION":97.4369,"RA_OF_ASC_NODE":120.9821,"ARG_OF_PERICENTER":336.8524,"MEAN_ANOMALY":23.2233,"EPHEMERIS_TYPE":0,"CLASSIFICATION_TYPE":"U","NORAD_CAT_ID":43790,"ELEMENT_SET_NO":999,"REV_AT_EPOCH":39729,"BSTAR":0.0003526184,"MEAN_MOTION_DOT":6.017e-5,"MEAN_MOTION_DDOT":0},{"OBJECT_NAME":"STARLINK-5767","OBJECT_ID":"2023-020T","EPOCH":"2026-03-09T22:00:01.999584","MEAN_MOTION":15.13072971,"ECCENTRICITY":8.839e-5,"INCLINATION":43.0001,"RA_OF_ASC_NODE":2.8554,"ARG_OF_PERICENTER":253.5362,"MEAN_ANOMALY":331.6672,"EPHEMERIS_TYPE":0,"CLASSIFICATION_TYPE":"U","NORAD_CAT_ID":55586,"ELEMENT_SET_NO":999,"REV_AT_EPOCH":573,"BSTAR":0.0015565881,"MEAN_MOTION_DOT":0.00027911,"MEAN_MOTION_DDOT":0}]
